{"type": "FeatureCollection", "features": [ {"type": "Feature", "properties": {"norad_id": 37966, "name": "COSMOS 2251 DEB", "group": "cosmos-2251-debris", "lat": -61.08646067751705, "lon": 90.81270131168597, "alt_km": 540.517898418113, "timestamp": "2025-12-08T10:52:03.346267+00:00", "meta": {"OBJECT_NAME": "COSMOS 2251 DEB", "OBJECT_ID": "1993-036BPR", "EPOCH": "2025-12-04T00:57:24.425856", "MEAN_MOTION": 15.1122342, "ECCENTRICITY": 0.0008631, "INCLINATION": 73.977, "RA_OF_ASC_NODE": 248.6217, "ARG_OF_PERICENTER": 122.4784, "MEAN_ANOMALY": 237.7244, "EPHEMERIS_TYPE": 0, "CLASSIFICATION_TYPE": "U", "NORAD_CAT_ID": 37966, "ELEMENT_SET_NO": 999, "REV_AT_EPOCH": 85211, "BSTAR": 0.0061628837, "MEAN_MOTION_DOT": 0.00105178, "MEAN_MOTION_DDOT": 0}, "tle": {"line1": "1 37966U 93036BPR 25338.03986604  .00105178  00000+0  61629-2 0  9996", "line2": "2 37966  73.9770 248.6217 0008631 122.4784 237.7244 15.11223420852119"}}, "geometry": {"type": "Point", "coordinates": [90.81270131168597, -61.08646067751705]}}, {"type": "Feature", "properties": {"norad_id": 37967, "name": "COSMOS 2251 DEB", "group": "cosmos-2251-debris", "lat": -56.49633511776723, "lon": 119.66476028892492, "alt_km": 659.6575701238235, "timestamp": "2025-12-08T10:52:03.346278+00:00", "meta": {"OBJECT_NAME": "COSMOS 2251 DEB", "OBJECT_ID": "1993-036BPS", "EPOCH": "2025-12-07T05:08:16.349568", "MEAN_MOTION": 14.40429216, "ECCENTRICITY": 0.01507781, "INCLINATION": 74.0144, "RA_OF_ASC_NODE": 147.6187, "ARG_OF_PERICENTER": 287.5941, "MEAN_ANOMALY": 70.8793, "EPHEMERIS_TYPE": 0, "CLASSIFICATION_TYPE": "U", "NORAD_CAT_ID": 37967, "ELEMENT_SET_NO": 999, "REV_AT_EPOCH": 64656, "BSTAR": 0.0022563435, "MEAN_MOTION_DOT": 8.18e-05, "MEAN_MOTION_DDOT": 0}, "tle": {"line1": "1 37967U 93036BPS 25341.21407812  .00008180  00000+0  22563-2 0  9999", "line2": "2 37967  74.0144 147.6187 0150778 287.5941  70.8793 14.40429216646566"}}, "geometry": {"type": "Point", "coordinates": [119.66476028892492, -56.49633511776723]}}, {"type": "Feature", "properties": {"norad_id": 37968, "name": "COSMOS 2251 DEB", "group": "cosmos-2251-debris", "lat": -59.774603781433015, "lon": 129.40801120301313, "alt_km": 622.1426631445847, "timestamp": "2025-12-08T10:52:03.346288+00:00", "meta": {"OBJECT_NAME": "COSMOS 2251 DEB", "OBJECT_ID": "1993-036BPT", "EPOCH": "2025-12-03T03:21:20.781504", "MEAN_MOTION": 15.00197638, "ECCENTRICITY": 0.00808241, "INCLINATION": 74.0001, "RA_OF_ASC_NODE": 290.7252, "ARG_OF_PERICENTER": 48.8285, "MEAN_ANOMALY": 311.9836, "EPHEMERIS_TYPE": 0, "CLASSIFICATION_TYPE": "U", "NORAD_CAT_ID": 37968, "ELEMENT_SET_NO": 999, "REV_AT_EPOCH": 60075, "BSTAR": 0.0013441412, "MEAN_MOTION_DOT": 0.00018013, "MEAN_MOTION_DDOT": 0}, "tle": {"line1": "1 37968U 93036BPT 25337.13982386  .00018013  00000+0  13441-2 0  9991", "line2": "2 37968  74.0001 290.7252 0080824  48.8285 311.9836 15.00197638600750"}}, "geometry": {"type": "Point", "coordinates": [129.40801120301313, -59.774603781433015]}}, {"type": "Feature", "properties": {"norad_id": 37971, "name": "COSMOS 2251 DEB", "group": "cosmos-2251-debris", "lat": -59.96115432312249, "lon": -100.44028511121134, "alt_km": 709.34935358641, "timestamp": "2025-12-08T10:52:03.346298+00:00", "meta": {"OBJECT_NAME": "COSMOS 2251 DEB", "OBJECT_ID": "1993-036BPW", "EPOCH": "2025-12-07T22:08:36.238560", "MEAN_MOTION": 14.48519582, "ECCENTRICITY": 0.00678408, "INCLINATION": 73.9925, "RA_OF_ASC_NODE": 50.7898, "ARG_OF_PERICENTER": 190.3152, "MEAN_ANOMALY": 169.6621, "EPHEMERIS_TYPE": 0, "CLASSIFICATION_TYPE": "U", "NORAD_CAT_ID": 37971, "ELEMENT_SET_NO": 999, "REV_AT_EPOCH": 60608, "BSTAR": 0.0027716956, "MEAN_MOTION_DOT": 0.00010702, "MEAN_MOTION_DDOT": 0}, "tle": {"line1": "1 37971U 93036BPW 25341.92264165  .00010702  00000+0  27717-2 0  9993", "line2": "2 37971  73.9925  50.7898 0067840 190.3152 169.6621 14.48519582606085"}}, "geometry": {"type": "Point", "coordinates": [-100.44028511121134, -59.96115432312249]}}, {"type": "Feature", "properties": {"norad_id": 37975, "name": "COSMOS 2251 DEB", "group": "cosmos-2251-debris", "lat": 65.86703637011937, "lon": 12.298415562534105, "alt_km": 657.7095708716679, "timestamp": "2025-12-08T10:52:03.346308+00:00", "meta": {"OBJECT_NAME": "COSMOS 2251 DEB", "OBJECT_ID": "1993-036BQA", "EPOCH": "2025-12-05T17:27:37.480032", "MEAN_MOTION": 14.75465418, "ECCENTRICITY": 0.00969737, "INCLINATION": 74.0024, "RA_OF_ASC_NODE": 337.8196, "ARG_OF_PERICENTER": 328.6738, "MEAN_ANOMALY": 30.8678, "EPHEMERIS_TYPE": 0, "CLASSIFICATION_TYPE": "U", "NORAD_CAT_ID": 37975, "ELEMENT_SET_NO": 999, "REV_AT_EPOCH": 69642, "BSTAR": 0.0063754192, "MEAN_MOTION_DOT": 0.00047082, "MEAN_MOTION_DDOT": 0}, "tle": {"line1": "1 37975U 93036BQA 25339.72751713  .00047082  00000+0  63754-2 0  9994", "line2": "2 37975  74.0024 337.8196 0096973 328.6738  30.8678 14.75465418696422"}}, "geometry": {"type": "Point", "coordinates": [12.298415562534105, 65.86703637011937]}}, {"type": "Feature", "properties": {"norad_id": 37978, "name": "COSMOS 2251 DEB", "group": "cosmos-2251-debris", "lat": -16.639381696549044, "lon": 93.91745529821515, "alt_km": 333.9301315687435, "timestamp": "2025-12-08T10:52:03.346318+00:00", "meta": {"OBJECT_NAME": "COSMOS 2251 DEB", "OBJECT_ID": "1993-036BQD", "EPOCH": "2025-11-19T05:08:53.100672", "MEAN_MOTION": 15.61137081, "ECCENTRICITY": 0.00148985, "INCLINATION": 74.0238, "RA_OF_ASC_NODE": 142.2198, "ARG_OF_PERICENTER": 140.9849, "MEAN_ANOMALY": 219.2448, "EPHEMERIS_TYPE": 0, "CLASSIFICATION_TYPE": "U", "NORAD_CAT_ID": 37978, "ELEMENT_SET_NO": 999, "REV_AT_EPOCH": 8032, "BSTAR": 0.0043958825, "MEAN_MOTION_DOT": 0.0039117, "MEAN_MOTION_DDOT": 0}, "tle": {"line1": "1 37978U 93036BQD 25323.21450348  .00391170  00000+0  43959-2 0  9999", "line2": "2 37978  74.0238 142.2198 0014898 140.9849 219.2448 15.61137081 80328"}}, "geometry": {"type": "Point", "coordinates": [93.91745529821515, -16.639381696549044]}}, {"type": "Feature", "properties": {"norad_id": 37985, "name": "COSMOS 2251 DEB", "group": "cosmos-2251-debris", "lat": 38.522846933178414, "lon": -73.21298951574154, "alt_km": 755.4984980103773, "timestamp": "2025-12-08T10:52:03.346327+00:00", "meta": {"OBJECT_NAME": "COSMOS 2251 DEB", "OBJECT_ID": "1993-036BQL", "EPOCH": "2025-12-07T12:56:14.167968", "MEAN_MOTION": 14.35480265, "ECCENTRICITY": 0.00206161, "INCLINATION": 74.0254, "RA_OF_ASC_NODE": 275.2818, "ARG_OF_PERICENTER": 39.5807, "MEAN_ANOMALY": 320.6846, "EPHEMERIS_TYPE": 0, "CLASSIFICATION_TYPE": "U", "NORAD_CAT_ID": 37985, "ELEMENT_SET_NO": 999, "REV_AT_EPOCH": 64842, "BSTAR": 0.0001017568, "MEAN_MOTION_DOT": 2.67e-06, "MEAN_MOTION_DDOT": 0}, "tle": {"line1": "1 37985U 93036BQL 25341.53905287  .00000267  00000+0  10176-3 0  9999", "line2": "2 37985  74.0254 275.2818 0020616  39.5807 320.6846 14.35480265648427"}}, "geometry": {"type": "Point", "coordinates": [-73.21298951574154, 38.522846933178414]}}, {"type": "Feature", "properties": {"norad_id": 37988, "name": "COSMOS 2251 DEB", "group": "cosmos-2251-debris", "lat": -62.8969955943603, "lon": -113.75161403226272, "alt_km": 716.1395599348034, "timestamp": "2025-12-08T10:52:03.346338+00:00", "meta": {"OBJECT_NAME": "COSMOS 2251 DEB", "OBJECT_ID": "1993-036BQP", "EPOCH": "2025-12-06T13:36:37.166976", "MEAN_MOTION": 14.68776482, "ECCENTRICITY": 0.00631953, "INCLINATION": 74.0631, "RA_OF_ASC_NODE": 35.9503, "ARG_OF_PERICENTER": 75.4462, "MEAN_ANOMALY": 285.3706, "EPHEMERIS_TYPE": 0, "CLASSIFICATION_TYPE": "U", "NORAD_CAT_ID": 37988, "ELEMENT_SET_NO": 999, "REV_AT_EPOCH": 23305, "BSTAR": 0.0013006623, "MEAN_MOTION_DOT": 7.798e-05, "MEAN_MOTION_DDOT": 0}, "tle": {"line1": "1 37988U 93036BQP 25340.56709684  .00007798  00000+0  13007-2 0  9998", "line2": "2 37988  74.0631  35.9503 0063195  75.4462 285.3706 14.68776482233052"}}, "geometry": {"type": "Point", "coordinates": [-113.75161403226272, -62.8969955943603]}}, {"type": "Feature", "properties": {"norad_id": 37993, "name": "COSMOS 2251 DEB", "group": "cosmos-2251-debris", "lat": 16.07441844578525, "lon": -9.635693205006392, "alt_km": 696.9370461681592, "timestamp": "2025-12-08T10:52:03.346348+00:00", "meta": {"OBJECT_NAME": "COSMOS 2251 DEB", "OBJECT_ID": "1993-036BQU", "EPOCH": "2025-12-07T19:19:05.524320", "MEAN_MOTION": 14.59827594, "ECCENTRICITY": 0.00219292, "INCLINATION": 74.0217, "RA_OF_ASC_NODE": 176.3367, "ARG_OF_PERICENTER": 265.5218, "MEAN_ANOMALY": 94.3442, "EPHEMERIS_TYPE": 0, "CLASSIFICATION_TYPE": "U", "NORAD_CAT_ID": 37993, "ELEMENT_SET_NO": 999, "REV_AT_EPOCH": 65245, "BSTAR": 0.0021240239, "MEAN_MOTION_DOT": 0.00010174, "MEAN_MOTION_DDOT": 0}, "tle": {"line1": "1 37993U 93036BQU 25341.80492505  .00010174  00000+0  21240-2 0  9993", "line2": "2 37993  74.0217 176.3367 0021929 265.5218  94.3442 14.59827594652451"}}, "geometry": {"type": "Point", "coordinates": [-9.635693205006392, 16.07441844578525]}}, {"type": "Feature", "properties": {"norad_id": 37994, "name": "COSMOS 2251 DEB", "group": "cosmos-2251-debris", "lat": -22.246080656271463, "lon": 110.32890967215678, "alt_km": 780.1076065179477, "timestamp": "2025-12-08T10:52:03.346358+00:00", "meta": {"OBJECT_NAME": "COSMOS 2251 DEB", "OBJECT_ID": "1993-036BQV", "EPOCH": "2025-12-07T22:15:08.780544", "MEAN_MOTION": 14.39604547, "ECCENTRICITY": 0.00227013, "INCLINATION": 74.036, "RA_OF_ASC_NODE": 284.5752, "ARG_OF_PERICENTER": 4.9936, "MEAN_ANOMALY": 355.144, "EPHEMERIS_TYPE": 0, "CLASSIFICATION_TYPE": "U", "NORAD_CAT_ID": 37994, "ELEMENT_SET_NO": 999, "REV_AT_EPOCH": 76995, "BSTAR": 0.000614405, "MEAN_MOTION_DOT": 1.899e-05, "MEAN_MOTION_DDOT": 0}, "tle": {"line1": "1 37994U 93036BQV 25341.92718496  .00001899  00000+0  61441-3 0  9999", "line2": "2 37994  74.0360 284.5752 0022701   4.9936 355.1440 14.39604547769951"}}, "geometry": {"type": "Point", "coordinates": [110.32890967215678, -22.246080656271463]}}]}